STARLINK-1552_new
1 16076C 20055BB  21326.15015561  .00003558  00000-0  23836-3 0  3263
2 16076  53.0543 298.0757 0001772  62.5701 354.4708 15.06399262    16
STARLINK-1552_old
1 26076C 20055BB  21325.16468656  .00003316  00000-0  22220-3 0  3257
2 26076  53.0538 302.4996 0001699  62.2419  47.6313 15.06386014    10
